STARLINK-33999          
1 63857U 25093X   26068.36264135  .00026292  00000+0  96056-3 0  9999
2 63857  43.0059  79.5866 0003344 295.8135  64.2372 15.27611111 47922
2025-313BD              
1 67299U 25313BD  26068.62968741  .00081010  00000+0  27634-2 0  9995
2 67299  97.3970 145.2850 0007287 333.4514  26.6352 15.30002360 10838
